ACS3                    
1 59588U 24077B   24191.77960837  .00000051  00000+0  94148-4 0  9994
2 59588  97.4053 254.7119 0020878  36.4511 323.8057 13.67690456 10498
